COSMOS 1743             
1 16719U 86034A   25303.74170933  .00035510  00000+0  64848-3 0  9998
2 16719  82.5381 209.1435 0009057  56.0867 304.1243 15.49194709160070
SL-14 R/B               
1 16792U 86046B   25303.19915504  .00000718  00000+0  80342-4 0  9992
2 16792  82.4845 203.4262 0021879 301.7157  58.1926 14.85419484107038
SL-14 R/B               
1 16882U 86055B   25303.86529074  .00000893  00000+0  10046-3 0  9996
2 16882  82.5200 248.6541 0020213  45.1719 338.5388 14.85457691100097
AJISAI (EGS)            
1 16908U 86061A   25303.77741308 -.00000084  00000+0  96326-4 0  9997
2 16908  50.0063 132.8243 0011135 317.3281 105.8881 12.44514077451825
COSMOS 1812             
1 17295U 87003A   25303.16176492  .00078524  00000+0  72881-3 0  9995
2 17295  82.4914 338.8752 0003220 181.2278 178.8975 15.67168771123815
SL-14 R/B               
1 17567U 87024B   25303.75127655  .00000791  00000+0  87663-4 0  9998
2 17567  82.5304 214.8289 0017710 336.0021  24.0368 14.85958455 68837
COSMOS 1833             
1 17589U 87027A   25303.74752170 -.00000307  00000+0 -13855-3 0  9996
2 17589  70.9165 239.1505 0020538  32.8536 327.3857 14.13025518991958
SL-16 R/B               
1 17590U 87027B   25303.11012530 -.00000068  00000+0 -10053-4 0  9990
2 17590  71.0025 191.6519 0006797 305.5933  54.4557 14.17142018996887
SL-14 R/B               
1 17912U 87038B   25303.74683148  .00000869  00000+0  98463-4 0  9996
2 17912  82.5023  59.1842 0018177 231.4325 128.5263 14.85193020 59942
COSMOS 1844             
1 17973U 87041A   25303.28369053  .00000292  00000+0  17649-3 0  9998
2 17973  70.8976 309.2285 0032484 221.3176 138.5488 14.14508234985144
SL-14 R/B               
1 18153U 87055B   25303.20740406  .00000767  00000+0  85781-4 0  9991
2 18153  82.4962 112.0144 0022222  85.3563 275.0191 14.85449917 50567
COSMOS 1867             
1 18187U 87060A   25303.28803164  .00000015  00000+0  43460-4 0  9997
2 18187  65.0104 311.8848 0013773 266.8108  93.1400 14.31475084  1272
