CCSDS_OMM_VERS = 2.0
CREATION_DATE  = 
ORIGINATOR     = 

OBJECT_NAME    = COSMOS 1743
OBJECT_ID      = 1986-034A
CENTER_NAME    = EARTH
REF_FRAME      = TEME
TIME_SYSTEM    = UTC
MEAN_ELEMENT_THEORY = SGP/SGP4

EPOCH          = 2025-10-30T17:48:03.686112
MEAN_MOTION    = 15.49194709
ECCENTRICITY   = .0009057
INCLINATION    = 82.5381
RA_OF_ASC_NODE = 209.1435
ARG_OF_PERICENTER = 56.0867
MEAN_ANOMALY   = 304.1243

EPHEMERIS_TYPE = 0
CLASSIFICATION_TYPE = U
NORAD_CAT_ID   = 16719
ELEMENT_SET_NO = 999
REV_AT_EPOCH   = 16007
BSTAR          = .64848E-3
MEAN_MOTION_DOT = .3551E-3
MEAN_MOTION_DDOT = 0

CCSDS_OMM_VERS = 2.0
CREATION_DATE  = 
ORIGINATOR     = 

OBJECT_NAME    = SL-14 R/B
OBJECT_ID      = 1986-046B
CENTER_NAME    = EARTH
REF_FRAME      = TEME
TIME_SYSTEM    = UTC
MEAN_ELEMENT_THEORY = SGP/SGP4

EPOCH          = 2025-10-30T04:46:46.995456
MEAN_MOTION    = 14.85419484
ECCENTRICITY   = .00218796
INCLINATION    = 82.4845
RA_OF_ASC_NODE = 203.4262
ARG_OF_PERICENTER = 301.7157
MEAN_ANOMALY   = 58.1926

EPHEMERIS_TYPE = 0
CLASSIFICATION_TYPE = U
NORAD_CAT_ID   = 16792
ELEMENT_SET_NO = 999
REV_AT_EPOCH   = 10703
BSTAR          = .80342429E-4
MEAN_MOTION_DOT = .718E-5
MEAN_MOTION_DDOT = 0

CCSDS_OMM_VERS = 2.0
CREATION_DATE  = 
ORIGINATOR     = 

OBJECT_NAME    = SL-14 R/B
OBJECT_ID      = 1986-055B
CENTER_NAME    = EARTH
REF_FRAME      = TEME
TIME_SYSTEM    = UTC
MEAN_ELEMENT_THEORY = SGP/SGP4

EPOCH          = 2025-10-30T20:46:01.119936
MEAN_MOTION    = 14.85457691
ECCENTRICITY   = .0020213
INCLINATION    = 82.5200
RA_OF_ASC_NODE = 248.6541
ARG_OF_PERICENTER = 45.1719
MEAN_ANOMALY   = 338.5388

EPHEMERIS_TYPE = 0
CLASSIFICATION_TYPE = U
NORAD_CAT_ID   = 16882
ELEMENT_SET_NO = 999
REV_AT_EPOCH   = 10009
BSTAR          = .10046E-3
MEAN_MOTION_DOT = .893E-5
MEAN_MOTION_DDOT = 0

CCSDS_OMM_VERS = 2.0
CREATION_DATE  = 
ORIGINATOR     = 

OBJECT_NAME    = AJISAI (EGS)
OBJECT_ID      = 1986-061A
CENTER_NAME    = EARTH
REF_FRAME      = TEME
TIME_SYSTEM    = UTC
MEAN_ELEMENT_THEORY = SGP/SGP4

EPOCH          = 2025-10-30T18:39:28.490112
MEAN_MOTION    = 12.44514077
ECCENTRICITY   = .0011135
INCLINATION    = 50.0063
RA_OF_ASC_NODE = 132.8243
ARG_OF_PERICENTER = 317.3281
MEAN_ANOMALY   = 105.8881

EPHEMERIS_TYPE = 0
CLASSIFICATION_TYPE = U
NORAD_CAT_ID   = 16908
ELEMENT_SET_NO = 999
REV_AT_EPOCH   = 45182
BSTAR          = .96326E-4
MEAN_MOTION_DOT = -.84E-6
MEAN_MOTION_DDOT = 0

CCSDS_OMM_VERS = 2.0
CREATION_DATE  = 
ORIGINATOR     = 

OBJECT_NAME    = COSMOS 1812
OBJECT_ID      = 1987-003A
CENTER_NAME    = EARTH
REF_FRAME      = TEME
TIME_SYSTEM    = UTC
MEAN_ELEMENT_THEORY = SGP/SGP4

EPOCH          = 2025-10-30T03:52:56.489088
MEAN_MOTION    = 15.67168771
ECCENTRICITY   = .00032205
INCLINATION    = 82.4914
RA_OF_ASC_NODE = 338.8752
ARG_OF_PERICENTER = 181.2278
MEAN_ANOMALY   = 178.8975

EPHEMERIS_TYPE = 0
CLASSIFICATION_TYPE = U
NORAD_CAT_ID   = 17295
ELEMENT_SET_NO = 999
REV_AT_EPOCH   = 12381
BSTAR          = .72880976E-3
MEAN_MOTION_DOT = .78524E-3
MEAN_MOTION_DDOT = 0

CCSDS_OMM_VERS = 2.0
CREATION_DATE  = 
ORIGINATOR     = 

OBJECT_NAME    = SL-14 R/B
OBJECT_ID      = 1987-024B
CENTER_NAME    = EARTH
REF_FRAME      = TEME
TIME_SYSTEM    = UTC
MEAN_ELEMENT_THEORY = SGP/SGP4

EPOCH          = 2025-10-30T18:01:50.293920
MEAN_MOTION    = 14.85958455
ECCENTRICITY   = .001771
INCLINATION    = 82.5304
RA_OF_ASC_NODE = 214.8289
ARG_OF_PERICENTER = 336.0021
MEAN_ANOMALY   = 24.0368

EPHEMERIS_TYPE = 0
CLASSIFICATION_TYPE = U
NORAD_CAT_ID   = 17567
ELEMENT_SET_NO = 999
REV_AT_EPOCH   = 6883
BSTAR          = .87663E-4
MEAN_MOTION_DOT = .791E-5
MEAN_MOTION_DDOT = 0

CCSDS_OMM_VERS = 2.0
CREATION_DATE  = 
ORIGINATOR     = 

OBJECT_NAME    = COSMOS 1833
OBJECT_ID      = 1987-027A
CENTER_NAME    = EARTH
REF_FRAME      = TEME
TIME_SYSTEM    = UTC
MEAN_ELEMENT_THEORY = SGP/SGP4

EPOCH          = 2025-10-30T17:56:25.874880
MEAN_MOTION    = 14.13025518
ECCENTRICITY   = .0020538
INCLINATION    = 70.9165
RA_OF_ASC_NODE = 239.1505
ARG_OF_PERICENTER = 32.8536
MEAN_ANOMALY   = 327.3857

EPHEMERIS_TYPE = 0
CLASSIFICATION_TYPE = U
NORAD_CAT_ID   = 17589
ELEMENT_SET_NO = 999
REV_AT_EPOCH   = 99195
BSTAR          = -.13855E-3
MEAN_MOTION_DOT = -.307E-5
MEAN_MOTION_DDOT = 0

CCSDS_OMM_VERS = 2.0
CREATION_DATE  = 
ORIGINATOR     = 

OBJECT_NAME    = SL-16 R/B
OBJECT_ID      = 1987-027B
CENTER_NAME    = EARTH
REF_FRAME      = TEME
TIME_SYSTEM    = UTC
MEAN_ELEMENT_THEORY = SGP/SGP4

EPOCH          = 2025-10-30T02:38:34.825920
MEAN_MOTION    = 14.17142018
ECCENTRICITY   = .00067978
INCLINATION    = 71.0025
RA_OF_ASC_NODE = 191.6519
ARG_OF_PERICENTER = 305.5933
MEAN_ANOMALY   = 54.4557

EPHEMERIS_TYPE = 0
CLASSIFICATION_TYPE = U
NORAD_CAT_ID   = 17590
ELEMENT_SET_NO = 999
REV_AT_EPOCH   = 99688
BSTAR          = -.10053082E-4
MEAN_MOTION_DOT = -.68E-6
MEAN_MOTION_DDOT = 0

CCSDS_OMM_VERS = 2.0
CREATION_DATE  = 
ORIGINATOR     = 

OBJECT_NAME    = SL-14 R/B
OBJECT_ID      = 1987-038B
CENTER_NAME    = EARTH
REF_FRAME      = TEME
TIME_SYSTEM    = UTC
MEAN_ELEMENT_THEORY = SGP/SGP4

EPOCH          = 2025-10-30T17:55:26.239872
MEAN_MOTION    = 14.85193020
ECCENTRICITY   = .0018177
INCLINATION    = 82.5023
RA_OF_ASC_NODE = 59.1842
ARG_OF_PERICENTER = 231.4325
MEAN_ANOMALY   = 128.5263

EPHEMERIS_TYPE = 0
CLASSIFICATION_TYPE = U
NORAD_CAT_ID   = 17912
ELEMENT_SET_NO = 999
REV_AT_EPOCH   = 5994
BSTAR          = .98463E-4
MEAN_MOTION_DOT = .869E-5
MEAN_MOTION_DDOT = 0

CCSDS_OMM_VERS = 2.0
CREATION_DATE  = 
ORIGINATOR     = 

OBJECT_NAME    = COSMOS 1844
OBJECT_ID      = 1987-041A
CENTER_NAME    = EARTH
REF_FRAME      = TEME
TIME_SYSTEM    = UTC
MEAN_ELEMENT_THEORY = SGP/SGP4

EPOCH          = 2025-10-30T06:48:30.861792
MEAN_MOTION    = 14.14508234
ECCENTRICITY   = .0032484
INCLINATION    = 70.8976
RA_OF_ASC_NODE = 309.2285
ARG_OF_PERICENTER = 221.3176
MEAN_ANOMALY   = 138.5488

EPHEMERIS_TYPE = 0
CLASSIFICATION_TYPE = U
NORAD_CAT_ID   = 17973
ELEMENT_SET_NO = 999
REV_AT_EPOCH   = 98514
BSTAR          = .17649189E-3
MEAN_MOTION_DOT = .292E-5
MEAN_MOTION_DDOT = 0

CCSDS_OMM_VERS = 2.0
CREATION_DATE  = 
ORIGINATOR     = 

OBJECT_NAME    = SL-14 R/B
OBJECT_ID      = 1987-055B
CENTER_NAME    = EARTH
REF_FRAME      = TEME
TIME_SYSTEM    = UTC
MEAN_ELEMENT_THEORY = SGP/SGP4

EPOCH          = 2025-10-30T04:58:39.710784
MEAN_MOTION    = 14.85449917
ECCENTRICITY   = .00222227
INCLINATION    = 82.4962
RA_OF_ASC_NODE = 112.0144
ARG_OF_PERICENTER = 85.3563
MEAN_ANOMALY   = 275.0191

EPHEMERIS_TYPE = 0
CLASSIFICATION_TYPE = U
NORAD_CAT_ID   = 18153
ELEMENT_SET_NO = 999
REV_AT_EPOCH   = 5056
BSTAR          = .85781386E-4
MEAN_MOTION_DOT = .767E-5
MEAN_MOTION_DDOT = 0

CCSDS_OMM_VERS = 2.0
CREATION_DATE  = 
ORIGINATOR     = 

OBJECT_NAME    = COSMOS 1867
OBJECT_ID      = 1987-060A
CENTER_NAME    = EARTH
REF_FRAME      = TEME
TIME_SYSTEM    = UTC
MEAN_ELEMENT_THEORY = SGP/SGP4

EPOCH          = 2025-10-30T06:54:45.933696
MEAN_MOTION    = 14.31475084
ECCENTRICITY   = .00137733
INCLINATION    = 65.0104
RA_OF_ASC_NODE = 311.8848
ARG_OF_PERICENTER = 266.8108
MEAN_ANOMALY   = 93.1400

EPHEMERIS_TYPE = 0
CLASSIFICATION_TYPE = U
NORAD_CAT_ID   = 18187
ELEMENT_SET_NO = 999
REV_AT_EPOCH   = 127
BSTAR          = .43459933E-4
MEAN_MOTION_DOT = .15E-6
MEAN_MOTION_DDOT = 0

